{
  "norad_id": 64102,
  "name": "STARLINK-34104",
  "history": [
    {
      "epoch": "2026-03-28T20:17:11.455872Z",
      "apogee_km": 475.9783829733133,
      "perigee_km": 474.781895951106,
      "latitude_deg": -1.5138097148286907e-05,
      "longitude_deg": 167.34938242807434,
      "height_km": 476.8318004695986,
      "semi_major_axis_km": 6853.517139462209,
      "eccentricity": 8.729e-05,
      "inclination_deg": 53.1591,
      "raan_deg": 297.907,
      "arg_perigee_deg": 157.4464,
      "mean_anomaly_deg": 202.6575,
      "mean_motion_rev_day": 15.30144717
    },
    {
      "epoch": "2026-03-28T23:25:18.449472Z",
      "apogee_km": 475.82283955312505,
      "perigee_km": 475.02782632250455,
      "latitude_deg": -7.502065917967807e-05,
      "longitude_deg": 119.58853655007219,
      "height_km": 476.53195762809884,
      "semi_major_axis_km": 6853.562332937815,
      "eccentricity": 5.8e-05,
      "inclination_deg": 53.1588,
      "raan_deg": 297.3041,
      "arg_perigee_deg": 238.7031,
      "mean_anomaly_deg": 121.3912,
      "mean_motion_rev_day": 15.30129582
    },
    {
      "epoch": "2026-03-29T21:22:02.911008Z",
      "apogee_km": 475.7584642405609,
      "perigee_km": 474.45086573088247,
      "latitude_deg": -3.3779041008455105e-05,
      "longitude_deg": 145.25123411469335,
      "height_km": 476.3138324476644,
      "semi_major_axis_km": 6853.241664985721,
      "eccentricity": 9.54e-05,
      "inclination_deg": 53.1589,
      "raan_deg": 293.0533,
      "arg_perigee_deg": 241.8342,
      "mean_anomaly_deg": 118.2562,
      "mean_motion_rev_day": 15.30236977
    },
    {
      "epoch": "2026-03-30T05:12:18.478656Z",
      "apogee_km": 475.5983505010272,
      "perigee_km": 474.6526002794235,
      "latitude_deg": 1.4014908695957401e-06,
      "longitude_deg": 25.847714269729373,
      "height_km": 476.2364705793634,
      "semi_major_axis_km": 6853.262475390225,
      "eccentricity": 6.9e-05,
      "inclination_deg": 53.1589,
      "raan_deg": 291.5365,
      "arg_perigee_deg": 243.5418,
      "mean_anomaly_deg": 116.5512,
      "mean_motion_rev_day": 15.30230007
    },
    {
      "epoch": "2026-03-30T06:46:21.619488Z",
      "apogee_km": 475.54077954353306,
      "perigee_km": 474.68960562121447,
      "latitude_deg": -1.168502546725036e-05,
      "longitude_deg": 1.9679412512427321,
      "height_km": 476.18004505229806,
      "semi_major_axis_km": 6853.252192582373,
      "eccentricity": 6.21e-05,
      "inclination_deg": 53.1606,
      "raan_deg": 291.2342,
      "arg_perigee_deg": 247.275,
      "mean_anomaly_deg": 112.8185,
      "mean_motion_rev_day": 15.30233451
    },
    {
      "epoch": "2026-03-30T20:52:48.466560Z",
      "apogee_km": 475.43142801524937,
      "perigee_km": 474.5703997677483,
      "latitude_deg": 3.255634481293418e-05,
      "longitude_deg": 147.04783940120615,
      "height_km": 475.74486564823275,
      "semi_major_axis_km": 6853.137913891499,
      "eccentricity": 6.282e-05,
      "inclination_deg": 53.1573,
      "raan_deg": 288.5053,
      "arg_perigee_deg": 291.269,
      "mean_anomaly_deg": 68.8244,
      "mean_motion_rev_day": 15.30271727
    },
    {
      "epoch": "2026-03-31T12:33:20.570400Z",
      "apogee_km": 476.45817469984195,
      "perigee_km": 473.9635560768411,
      "latitude_deg": -3.6712249849102816e-05,
      "longitude_deg": -91.76375070284952,
      "height_km": 475.61965014915535,
      "semi_major_axis_km": 6853.347865388341,
      "eccentricity": 0.000182,
      "inclination_deg": 53.1574,
      "raan_deg": 285.4713,
      "arg_perigee_deg": 66.9452,
      "mean_anomaly_deg": 293.174,
      "mean_motion_rev_day": 15.30201408
    }
  ]
}